JILIN-1 07              
1 43159U 18008E   26199.57969517  .00004500  00000+0  13392-3 0  9994
2 43159  97.1767 218.6803 0006438 313.1985  46.8721 15.35196511469813
JILIN-1 08              
1 43160U 18008F   26199.60228874  .00003070  00000+0  95536-4 0  9996
2 43160  97.1804 217.9828 0004910 338.6764  21.4274 15.34032042469769
S-NET D                 
1 43186U 18014G   26199.53347604  .00002346  00000+0  12236-3 0  9996
2 43186  97.5324 104.1293 0006227 270.2085  89.8435 15.16934469463519
S-NET B                 
1 43187U 18014H   26199.54554731  .00002476  00000+0  12906-3 0  9997
2 43187  97.5330 104.1289 0006846 264.1964  95.8489 15.16903993463511
S-NET A                 
1 43188U 18014J   26199.59814477  .00002311  00000+0  12058-3 0  9995
2 43188  97.5339 104.3960 0006755 264.8979  95.1483 15.16943103463526
S-NET C                 
1 43189U 18014K   26199.61555933  .00002450  00000+0  12776-3 0  9999
2 43189  97.5357 104.4927 0008125 255.8443 104.1887 15.16895365462074
PAZ                     
1 43215U 18020A   26199.59205501  .00000845  00000+0  43422-4 0  9995
2 43215  97.4457 206.5320 0001691  88.3630 271.7798 15.19149580465779
GOES 17                 
1 43226U 18022A   26199.53332528 -.00000190  00000+0  00000+0 0  9997
2 43226   1.0158  85.2110 0000625  68.3954 245.2221  1.00270821 30731
LKW-4                   
1 43236U 18025A   26198.99152760  .00028528  00000+0  29514-3 0  9997
2 43236  97.6359  12.3408 0003573 175.5769 184.5522 15.64695863464841
ZHUHAI-1 OVS-02         
1 43440U 18040B   26199.65698734  .00003539  00000+0  14272-3 0  9991
2 43440  97.0384 215.0268 0005342 127.1280 233.0448 15.25402473457516
ZHUHAI-1 OHS-02         
1 43441U 18040C   26199.62406380  .00003889  00000+0  15228-3 0  9993
2 43441  97.0361 221.9666 0011400 115.0772 245.1652 15.26295918119076
GAOFEN-6                
1 43484U 18048A   26199.65293802  .00000185  00000+0  34181-4 0  9990
2 43484  98.0951 262.3630 0012073  71.7978 288.4544 14.76385518438032
LUOJIA-1 01             
1 43485U 18048B   26199.65911309  .00001285  00000+0  14807-3 0  9994
2 43485  97.8097 277.3420 0009561  27.5942 332.5780 14.87390271438893
PAKTES 1A               
1 43529U 18056A   26199.64182354  .00001216  00000+0  10485-3 0  9993
2 43529  98.1299 357.4709 0019644   9.6417 350.5177 14.99213402436634
PRSS-1                  
1 43530U 18056B   26199.65285228  .00000125  00000+0  22107-4 0  9993
2 43530  97.7803 266.6496 0001266  87.0386 273.0972 14.82030912433096
HAIYANG-1C              
1 43609U 18068A   26199.63976454  .00000285  00000+0  11714-3 0  9997
2 43609  98.5177 271.4913 0010985   8.4090 351.7277 14.34188217411593
SSTL S1-4               
1 43618U 18071A   26199.58790072  .00000754  00000+0  71696-4 0  9992
2 43618  97.4978  69.8880 0002568  93.5226 266.6289 14.96208374427630
HAIYANG-2B              
1 43655U 18081A   26199.64480848 -.00000165  00000+0 -11750-3 0  9990
2 43655  99.3288 207.9270 0001022 142.7741 217.3482 13.79306491389260
CFOSAT                  
1 43662U 18083A   26199.56896361  .00001530  00000+0  82327-4 0  9996
2 43662  97.3618 203.1781 0001738  40.1142 320.0220 15.16305786427194
TEN-KOH                 
1 43677U 18084G   26199.48046073  .00001405  00000+0  10915-3 0  9995
2 43677  98.0767  33.1610 0009718  21.0602 339.1020 15.03057055420865
DIWATA-2B               
1 43678U 18084H   26199.57843076  .00001088  00000+0  91320-4 0  9991
2 43678  98.1212  37.1613 0012646  74.0415 286.2200 15.00570889420924
STARS-AO                
1 43679U 18084J   26199.13670066  .00003085  00000+0  15832-3 0  9993
2 43679  98.0468  55.0177 0003503  75.0456 285.1164 15.17363492422162
AUTCUBE 2               
1 43681U 18084K   26198.04654678  .00001954  00000+0  12370-3 0  9993
2 43681  98.0688  45.8049 0007629 307.5976  52.4559 15.10273255421439
METOP-C                 
1 43689U 18087A   26199.60154768  .00000029  00000+0  33270-4 0  9997
2 43689  98.6627 258.6282 0002122  89.2369 270.9052 14.21503393399295
ES'HAIL 2               
1 43700U 18090A   26199.48476215  .00000137  00000+0  00000+0 0  9995
2 43700   0.0159  76.3340 0002345  81.6613 338.5852  1.00272876 27997
MOHAMMED VI-B           
1 43717U 18095A   26199.60920142  .00000183  00000+0  33110-4 0  9999
2 43717  97.9543 271.4992 0001772  91.9074 268.2339 14.77083447412827
HYSIS                   
1 43719U 18096A   26199.61051590  .00000798  00000+0  11590-3 0  9994
2 43719  97.9823 266.1098 0001784  83.0928 277.0486 14.78674598412062
COSMOS 2530 (RODNIK-S *)
1 43751U 18097A   26199.60968513 -.00000110  00000+0 -86160-3 0  9997
2 43751  82.5120 202.7790 0018822 331.3186  28.6857 12.42881686346198
COSMOS 2531 (RODNIK-S *)
1 43752U 18097B   26199.63118235 -.00000111  00000+0 -86870-3 0  9998
2 43752  82.5165 203.8348 0016440 351.5273   8.5526 12.42912932346216
