OBJECT_NAME,OBJECT_ID,EPOCH,MEAN_MOTION,ECCENTRICITY,INCLINATION,RA_OF_ASC_NODE,ARG_OF_PERICENTER,MEAN_ANOMALY,EPHEMERIS_TYPE,CLASSIFICATION_TYPE,NORAD_CAT_ID,ELEMENT_SET_NO,REV_AT_EPOCH,BSTAR,MEAN_MOTION_DOT,MEAN_MOTION_DDOT
JILIN-1 07,2018-008E,2026-07-18T13:54:45.662688,15.35196511,.00064383,97.1767,218.6803,313.1985,46.8721,0,U,43159,999,46981,.13391936E-3,.45E-4,0
JILIN-1 08,2018-008F,2026-07-18T14:27:17.747136,15.34032042,.00049102,97.1804,217.9828,338.6764,21.4274,0,U,43160,999,46976,.95535774E-4,.307E-4,0
S-NET D,2018-014G,2026-07-18T12:48:12.329856,15.16934469,.00062271,97.5324,104.1293,270.2085,89.8435,0,U,43186,999,46351,.12236293E-3,.2346E-4,0
S-NET B,2018-014H,2026-07-18T13:05:35.287584,15.16903993,.00068465,97.5330,104.1289,264.1964,95.8489,0,U,43187,999,46351,.12905725E-3,.2476E-4,0
S-NET A,2018-014J,2026-07-18T14:21:19.708128,15.16943103,.00067551,97.5339,104.3960,264.8979,95.1483,0,U,43188,999,46352,.12057564E-3,.2311E-4,0
S-NET C,2018-014K,2026-07-18T14:46:24.326112,15.16895365,.00081255,97.5357,104.4927,255.8443,104.1887,0,U,43189,999,46207,.12775669E-3,.245E-4,0
PAZ,2018-020A,2026-07-18T14:12:33.552864,15.19149580,.0001691,97.4457,206.5320,88.3630,271.7798,0,U,43215,999,46577,.43421906E-4,.845E-5,0
GOES 17,2018-022A,2026-07-18T12:47:59.304192,1.00270821,.0000625,1.0158,85.2110,68.3954,245.2221,0,U,43226,999,3073,0,-.19E-5,0
LKW-4,2018-025A,2026-07-17T23:47:47.984640,15.64695863,.00035739,97.6359,12.3408,175.5769,184.5522,0,U,43236,999,46484,.29514424E-3,.28528E-3,0
ZHUHAI-1 OVS-02,2018-040B,2026-07-18T15:46:03.706176,15.25402473,.0005342,97.0384,215.0268,127.1280,233.0448,0,U,43440,999,45751,.14272346E-3,.3539E-4,0
ZHUHAI-1 OHS-02,2018-040C,2026-07-18T14:58:39.112320,15.26295918,.00114004,97.0361,221.9666,115.0772,245.1652,0,U,43441,999,11907,.15227583E-3,.3889E-4,0
GAOFEN-6,2018-048A,2026-07-18T15:40:13.844928,14.76385518,.00120734,98.0951,262.3630,71.7978,288.4544,0,U,43484,999,43803,.34181132E-4,.185E-5,0
LUOJIA-1 01,2018-048B,2026-07-18T15:49:07.370976,14.87390271,.00095617,97.8097,277.3420,27.5942,332.5780,0,U,43485,999,43889,.14806987E-3,.1285E-4,0
PAKTES 1A,2018-056A,2026-07-18T15:24:13.553856,14.99213402,.00196444,98.1299,357.4709,9.6417,350.5177,0,U,43529,999,43663,.10484573E-3,.1216E-4,0
PRSS-1,2018-056B,2026-07-18T15:40:06.436992,14.82030912,.00012664,97.7803,266.6496,87.0386,273.0972,0,U,43530,999,43309,.22107254E-4,.125E-5,0
HAIYANG-1C,2018-068A,2026-07-18T15:21:15.656256,14.34188217,.00109853,98.5177,271.4913,8.4090,351.7277,0,U,43609,999,41159,.11714201E-3,.285E-5,0
SSTL S1-4,2018-071A,2026-07-18T14:06:34.622208,14.96208374,.0002568,97.4978,69.8880,93.5226,266.6289,0,U,43618,999,42763,.716958E-4,.754E-5,0
HAIYANG-2B,2018-081A,2026-07-18T15:28:31.452672,13.79306491,.00010224,99.3288,207.9270,142.7741,217.3482,0,U,43655,999,38926,-.11749892E-3,-.165E-5,0
CFOSAT,2018-083A,2026-07-18T13:39:18.455904,15.16305786,.00017385,97.3618,203.1781,40.1142,320.0220,0,U,43662,999,42719,.82327097E-4,.153E-4,0
TEN-KOH,2018-084G,2026-07-18T11:31:51.807072,15.03057055,.00097183,98.0767,33.1610,21.0602,339.1020,0,U,43677,999,42086,.1091546E-3,.1405E-4,0
DIWATA-2B,2018-084H,2026-07-18T13:52:56.417664,15.00570889,.00126464,98.1212,37.1613,74.0415,286.2200,0,U,43678,999,42092,.91320249E-4,.1088E-4,0
STARS-AO,2018-084J,2026-07-18T03:16:50.937024,15.17363492,.00035033,98.0468,55.0177,75.0456,285.1164,0,U,43679,999,42216,.15831903E-3,.3085E-4,0
AUTCUBE 2,2018-084K,2026-07-17T01:07:01.641792,15.10273255,.00076293,98.0688,45.8049,307.5976,52.4559,0,U,43681,999,42143,.12370127E-3,.1954E-4,0
METOP-C,2018-087A,2026-07-18T14:26:13.719552,14.21503393,.00021226,98.6627,258.6282,89.2369,270.9052,0,U,43689,999,39929,.3326996E-4,.29E-6,0
ES'HAIL 2,2018-090A,2026-07-18T11:38:03.449760,1.00272876,.00023457,0.0159,76.3340,81.6613,338.5852,0,U,43700,999,2799,0,.137E-5,0
MOHAMMED VI-B,2018-095A,2026-07-18T14:37:15.002688,14.77083447,.00017727,97.9543,271.4992,91.9074,268.2339,0,U,43717,999,41282,.33109608E-4,.183E-5,0
HYSIS,2018-096A,2026-07-18T14:39:08.573760,14.78674598,.00017843,97.9823,266.1098,83.0928,277.0486,0,U,43719,999,41206,.11589697E-3,.798E-5,0
COSMOS 2530 (RODNIK-S 16),2018-097A,2026-07-18T14:37:56.795232,12.42881686,.00188229,82.5120,202.7790,331.3186,28.6857,0,U,43751,999,34619,-.86160466E-3,-.11E-5,0
COSMOS 2531 (RODNIK-S 17),2018-097B,2026-07-18T15:08:54.155040,12.42912932,.00164401,82.5165,203.8348,351.5273,8.5526,0,U,43752,999,34621,-.86870026E-3,-.111E-5,0
